28366,APRIZESAT 2,2004,100.2,12.0,+,98.09,Active,1,LEO,Kazakhstan,USA,Commercial,Communications/Technology Development,Dnepr,1 28366U 04025A   24020.54249787  .00000354  00000+0  12468-3 0  9995,2 28366  98.0918 227.5410 0107477  22.8822 337.7103 14.37171460 25390,14.3717146,0.0107477,LEO
28369,SAUDICOMSAT 1,2004,99.06,12.0,+,98.52,Active,1,LEO,Kazakhstan,Saudi Arabia,Commercial,Technology Development,Dnepr,1 28369U 04025D   24020.47094420  .00000979  00000+0  24390-3 0  9992,2 28369  98.5208 358.8565 0032750 191.6685 168.3755 14.53663885 36378,14.53663885,0.003275,LEO
28370,SAUDICOMSAT 2,2004,99.42,12.0,+,98.61,Active,1,LEO,Kazakhstan,Saudi Arabia,Commercial,Technology Development,Dnepr,1 28370U 04025E   24020.50162601  .00001022  00000+0  27958-3 0  9998,2 28370  98.6128 359.3528 0057690  40.5186 320.0280 14.48444404 32829,14.48444404,0.005769,LEO
28372,APRIZESAT 1,2004,99.28,12.0,+,98.57,Active,1,LEO,Kazakhstan,USA,Commercial,Communications/Technology Development,Dnepr,1 28372U 04025G   24020.49719309  .00000895  00000+0  23835-3 0  9998,2 28372  98.5744 358.8843 0044633 307.6391  52.0756 14.50445861 34469,14.50445861,0.0044633,LEO
28493,NANOSAT-1,2004,97.58,20.0,+,98.13,Active,1,LEO,French Guiana,Spain,Government,Communications,Ariane,1 28493U 04049B   24020.31593806  .00002308  00000+0  34449-3 0  9995,2 28493  98.1337 132.7916 0003334 220.9454 139.1505 14.75791469 25607,14.75791469,0.0003334,LEO
31124,SAUDICOMSAT 5,2007,98.28,12.0,+,98.23,Active,1,LEO,Kazakhstan,Saudi Arabia,Commercial,Communications,Dnepr,1 31124U 07012H   24020.44799325  .00001949  00000+0  36533-3 0  9997,2 31124  98.2285 334.8225 0050322  11.0150 349.2142 14.65148320894767,14.6514832,0.0050322,LEO
31125,SAUDICOMSAT 3,2007,98.15,12.0,+,98.19,Active,1,LEO,Kazakhstan,Saudi Arabia,Commercial,Communications,Dnepr,1 31125U 07012J   24020.29617488  .00002135  00000+0  38384-3 0  9994,2 31125  98.1950 335.5509 0040768 310.5358  49.2298 14.67182220895779,14.6718222,0.0040768,LEO
35684,APRIZESAT 4,2009,97.24,12.0,+,98.26,Active,1,LEO,Kazakhstan,USA,Commercial,Communications/Maritime Tracking,Dnepr,1 35684U 09041D   24020.60291027  .00001570  00000+0  20726-3 0  9997,2 35684  98.2597  63.1691 0044398 282.1149  77.5089 14.80928362781183,14.80928362,0.0044398,LEO
36797,AISSAT 1,2010,96.64,6.0,+,98.2,Active,1,LEO,India,Norway,Government,Communications,PSLV,1 36797U 10035C   24020.58925323  .00003704  00000+0  38940-3 0  9996,2 36797  98.2041 236.5609 0011643  73.9817 286.2681 14.90053033733036,14.90053033,0.0011643,LEO
43186,S-NET D,2018,95.83,8.5,+,97.6,Active,1,LEO,Russia,Germany,Civil,Technology Development,Soyuz,1 43186U 18014G   24020.31160740  .00005653  00000+0  42822-3 0  9995,2 43186  97.6048 284.8863 0012249 139.4471 220.7669 15.02609518326138,15.02609518,0.0012249,LEO
43187,S-NET B,2018,95.83,8.5,+,97.61,Active,1,LEO,Russia,Germany,Civil,Technology Development,Soyuz,1 43187U 18014H   24020.31329371  .00005701  00000+0  43178-3 0  9992,2 43187  97.6058 284.8256 0013381 136.1177 224.1114 15.02606135326136,15.02606135,0.0013381,LEO
46495,SALSAT,2020,95.33,12.0,+,97.8,Active,1,LEO,Russia,Germany,Civil,Space Science,Soyuz,1 46495U 20068K   24020.41807701  .00008278  00000+0  50442-3 0  9992,2 46495  97.7975 336.4648 0016354  99.4324 260.8754 15.10533015181835,15.10533015,0.0016354,LEO
